[{"OBJECT_NAME":"STARLINK-31364","OBJECT_ID":"2024-068J","EPOCH":"2026-03-09T22:37:54.050016","MEAN_MOTION":15.27568214,"ECCENTRICITY":0.0001134,"INCLINATION":43.0044,"RA_OF_ASC_NODE":29.444,"ARG_OF_PERICENTER":289.8415,"MEAN_ANOMALY":70.2315,"EPHEMERIS_TYPE":0,"CLASSIFICATION_TYPE":"U","NORAD_CAT_ID":59463,"ELEMENT_SET_NO":999,"REV_AT_EPOCH":10860,"BSTAR":1.3944955e-5,"MEAN_MOTION_DOT":1.22e-6,"MEAN_MOTION_DDOT":0},{"OBJECT_NAME":"YAOGAN-43 01H","OBJECT_ID":"2024-148H","EPOCH":"2026-03-10T00:13:57.702432","MEAN_MOTION":15.25826805,"ECCENTRICITY":0.000635,"INCLINATION":34.994,"RA_OF_ASC_NODE":64.6147,"ARG_OF_PERICENTER":359.2394,"MEAN_ANOMALY":0.8311,"EPHEMERIS_TYPE":0,"CLASSIFICATION_TYPE":"U","NORAD_CAT_ID":60465,"ELEMENT_SET_NO":999,"REV_AT_EPOCH":8702,"BSTAR":0.00039232254,"MEAN_MOTION_DOT":0.00010268,"MEAN_MOTION_DDOT":0}]
